[{"OBJECT_NAME":"YAOGAN-43 01D","OBJECT_ID":"2024-148D","EPOCH":"2026-03-09T10:27:16.254720","MEAN_MOTION":15.28369377,"ECCENTRICITY":0.00025569,"INCLINATION":35.001,"RA_OF_ASC_NODE":61.7102,"ARG_OF_PERICENTER":326.2473,"MEAN_ANOMALY":33.808,"EPHEMERIS_TYPE":0,"CLASSIFICATION_TYPE":"U","NORAD_CAT_ID":60461,"ELEMENT_SET_NO":999,"REV_AT_EPOCH":8700,"BSTAR":0.00037765912,"MEAN_MOTION_DOT":0.00010676,"MEAN_MOTION_DDOT":0},{"OBJECT_NAME":"STARLINK-35219","OBJECT_ID":"2025-259X","EPOCH":"2026-03-09T22:20:03.897888","MEAN_MOTION":15.27597707,"ECCENTRICITY":0.00013388,"INCLINATION":43.0001,"RA_OF_ASC_NODE":273.3686,"ARG_OF_PERICENTER":262.6783,"MEAN_ANOMALY":97.3916,"EPHEMERIS_TYPE":0,"CLASSIFICATION_TYPE":"U","NORAD_CAT_ID":66443,"ELEMENT_SET_NO":999,"REV_AT_EPOCH":1941,"BSTAR":0.00093406407,"MEAN_MOTION_DOT":0.00025544,"MEAN_MOTION_DDOT":0}]
